{
  "type": "FeatureCollection",
  "features": [
    {
      "type": "Feature",
      "properties": {
        "norad_id": 41581,
        "name": "INTELSAT 31 (IS-31)",
        "group": "intelsat",
        "lat": 0.01739372365578248,
        "lon": -13.659542526742051,
        "alt_km": 35791.51077786327,
        "timestamp": "2025-12-17T23:38:06.530685+00:00",
        "meta_object_name": "INTELSAT 31 (IS-31)",
        "meta_object_id": "2016-035A",
        "meta_epoch": "2025-12-17T09:27:00.770688",
        "meta_mean_motion": 1.00274449,
        "meta_eccentricity": 0.00019987,
        "meta_inclination": 0.0203,
        "meta_ra_of_asc_node": 273.7314,
        "meta_arg_of_pericenter": 295.2783,
        "meta_mean_anomaly": 283.9649,
        "meta_ephemeris_type": 0,
        "meta_classification_type": "U",
        "meta_norad_cat_id": 41581,
        "meta_element_set_no": 999,
        "meta_rev_at_epoch": 3486,
        "meta_bstar": 0,
        "meta_mean_motion_dot": -1.27e-06,
        "meta_mean_motion_ddot": 0,
        "tle_line1": "1 41581U 16035A   25351.39375892 -.00000127  00000+0  00000+0 0  9995",
        "tle_line2": "2 41581   0.0203 273.7314 0001998 295.2783 283.9649  1.00274449 34869"
      },
      "geometry": {
        "type": "Point",
        "coordinates": [
          -13.659542526742051,
          0.01739372365578248
        ]
      }
    },
    {
      "type": "Feature",
      "properties": {
        "norad_id": 41747,
        "name": "INTELSAT 36 (IS-36)",
        "group": "intelsat",
        "lat": 0.017130903106796647,
        "lon": 149.8512721205694,
        "alt_km": 35791.22697491895,
        "timestamp": "2025-12-17T23:38:06.530697+00:00",
        "meta_object_name": "INTELSAT 36 (IS-36)",
        "meta_object_id": "2016-053A",
        "meta_epoch": "2025-12-17T13:39:05.673888",
        "meta_mean_motion": 1.00271192,
        "meta_eccentricity": 0.00011892,
        "meta_inclination": 0.0124,
        "meta_ra_of_asc_node": 7.0613,
        "meta_arg_of_pericenter": 323.7892,
        "meta_mean_anomaly": 28.8497,
        "meta_ephemeris_type": 0,
        "meta_classification_type": "U",
        "meta_norad_cat_id": 41747,
        "meta_element_set_no": 999,
        "meta_rev_at_epoch": 3412,
        "meta_bstar": 0,
        "meta_mean_motion_dot": 1e-08,
        "meta_mean_motion_ddot": 0,
        "tle_line1": "1 41747U 16053A   25351.56881567  .00000001  00000+0  00000+0 0  9999",
        "tle_line2": "2 41747   0.0124   7.0613 0001189 323.7892  28.8497  1.00271192 34123"
      },
      "geometry": {
        "type": "Point",
        "coordinates": [
          149.8512721205694,
          0.017130903106796647
        ]
      }
    },
    {
      "type": "Feature",
      "properties": {
        "norad_id": 41945,
        "name": "INTELSAT 32E (IS-32E)",
        "group": "intelsat",
        "lat": 0.003921112178169416,
        "lon": 38.19582722630448,
        "alt_km": 35783.90751230795,
        "timestamp": "2025-12-17T23:38:06.530709+00:00",
        "meta_object_name": "INTELSAT 32E (IS-32E)",
        "meta_object_id": "2017-007B",
        "meta_epoch": "2025-12-17T09:41:44.361024",
        "meta_mean_motion": 1.00270476,
        "meta_eccentricity": 6.207e-05,
        "meta_inclination": 0.028,
        "meta_ra_of_asc_node": 69.679,
        "meta_arg_of_pericenter": 323.1831,
        "meta_mean_anomaly": 155.683,
        "meta_ephemeris_type": 0,
        "meta_classification_type": "U",
        "meta_norad_cat_id": 41945,
        "meta_element_set_no": 999,
        "meta_rev_at_epoch": 3240,
        "meta_bstar": 0,
        "meta_mean_motion_dot": -2.44e-06,
        "meta_mean_motion_ddot": 0,
        "tle_line1": "1 41945U 17007B   25351.40398566 -.00000244  00000+0  00000+0 0  9994",
        "tle_line2": "2 41945   0.0280  69.6790 0000620 323.1831 155.6830  1.00270476 32405"
      },
      "geometry": {
        "type": "Point",
        "coordinates": [
          38.19582722630448,
          0.003921112178169416
        ]
      }
    },
    {
      "type": "Feature",
      "properties": {
        "norad_id": 42818,
        "name": "INTELSAT 35E (IS-35E)",
        "group": "intelsat",
        "lat": 0.03771191094822743,
        "lon": 46.882840258317835,
        "alt_km": 35792.32435057301,
        "timestamp": "2025-12-17T23:38:06.530720+00:00",
        "meta_object_name": "INTELSAT 35E (IS-35E)",
        "meta_object_id": "2017-041A",
        "meta_epoch": "2025-12-17T09:44:14.121600",
        "meta_mean_motion": 1.00270102,
        "meta_eccentricity": 0.00018428,
        "meta_inclination": 0.0258,
        "meta_ra_of_asc_node": 6.5614,
        "meta_arg_of_pericenter": 263.2189,
        "meta_mean_anomaly": 288.0645,
        "meta_ephemeris_type": 0,
        "meta_classification_type": "U",
        "meta_norad_cat_id": 42818,
        "meta_element_set_no": 999,
        "meta_rev_at_epoch": 3099,
        "meta_bstar": 0,
        "meta_mean_motion_dot": 0,
        "meta_mean_motion_ddot": 0,
        "tle_line1": "1 42818U 17041A   25351.40571900  .00000000  00000+0  00000+0 0  9996",
        "tle_line2": "2 42818   0.0258   6.5614 0001842 263.2189 288.0645  1.00270102 30995"
      },
      "geometry": {
        "type": "Point",
        "coordinates": [
          46.882840258317835,
          0.03771191094822743
        ]
      }
    },
    {
      "type": "Feature",
      "properties": {
        "norad_id": 42950,
        "name": "INTELSAT 37E (IS-37E)",
        "group": "intelsat",
        "lat": 0.039646534310772884,
        "lon": 63.37667526939917,
        "alt_km": 35798.386634695875,
        "timestamp": "2025-12-17T23:38:06.530731+00:00",
        "meta_object_name": "INTELSAT 37E (IS-37E)",
        "meta_object_id": "2017-059A",
        "meta_epoch": "2025-12-17T09:48:58.667904",
        "meta_mean_motion": 1.0027127,
        "meta_eccentricity": 0.00029563,
        "meta_inclination": 0.0142,
        "meta_ra_of_asc_node": 332.1274,
        "meta_arg_of_pericenter": 285.3913,
        "meta_mean_anomaly": 318.0124,
        "meta_ephemeris_type": 0,
        "meta_classification_type": "U",
        "meta_norad_cat_id": 42950,
        "meta_element_set_no": 999,
        "meta_rev_at_epoch": 3024,
        "meta_bstar": 0,
        "meta_mean_motion_dot": -1.16e-06,
        "meta_mean_motion_ddot": 0,
        "tle_line1": "1 42950U 17059A   25351.40901236 -.00000116  00000+0  00000+0 0  9990",
        "tle_line2": "2 42950   0.0142 332.1274 0002956 285.3913 318.0124  1.00271270 30242"
      },
      "geometry": {
        "type": "Point",
        "coordinates": [
          63.37667526939917,
          0.039646534310772884
        ]
      }
    },
    {
      "type": "Feature",
      "properties": {
        "norad_id": 43632,
        "name": "AZERSPACE 2 (IS-38)",
        "group": "intelsat",
        "lat": 0.027335694267391537,
        "lon": 126.47546858529488,
        "alt_km": 35790.12892439839,
        "timestamp": "2025-12-17T23:38:06.530743+00:00",
        "meta_object_name": "AZERSPACE 2 (IS-38)",
        "meta_object_id": "2018-074A",
        "meta_epoch": "2025-12-17T13:32:28.807584",
        "meta_mean_motion": 1.00272158,
        "meta_eccentricity": 0.00011912,
        "meta_inclination": 0.0178,
        "meta_ra_of_asc_node": 345.1329,
        "meta_arg_of_pericenter": 287.8955,
        "meta_mean_anomaly": 61.6442,
        "meta_ephemeris_type": 0,
        "meta_classification_type": "U",
        "meta_norad_cat_id": 43632,
        "meta_element_set_no": 999,
        "meta_rev_at_epoch": 2662,
        "meta_bstar": 0,
        "meta_mean_motion_dot": 1.61e-06,
        "meta_mean_motion_ddot": 0,
        "tle_line1": "1 43632U 18074A   25351.56422231  .00000161  00000+0  00000+0 0  9995",
        "tle_line2": "2 43632   0.0178 345.1329 0001191 287.8955  61.6442  1.00272158 26624"
      },
      "geometry": {
        "type": "Point",
        "coordinates": [
          126.47546858529488,
          0.027335694267391537
        ]
      }
    },
    {
      "type": "Feature",
      "properties": {
        "norad_id": 43633,
        "name": "HORIZONS-3E",
        "group": "intelsat",
        "lat": -0.01162217096690426,
        "lon": -109.66505541157261,
        "alt_km": 35784.3194497938,
        "timestamp": "2025-12-17T23:38:06.530755+00:00",
        "meta_object_name": "HORIZONS-3E",
        "meta_object_id": "2018-074B",
        "meta_epoch": "2025-12-16T14:09:40.218048",
        "meta_mean_motion": 1.00269891,
        "meta_eccentricity": 8.37e-05,
        "meta_inclination": 0.0492,
        "meta_ra_of_asc_node": 188.1186,
        "meta_arg_of_pericenter": 112.8726,
        "meta_mean_anomaly": 165.8874,
        "meta_ephemeris_type": 0,
        "meta_classification_type": "U",
        "meta_norad_cat_id": 43633,
        "meta_element_set_no": 999,
        "meta_rev_at_epoch": 2651,
        "meta_bstar": 0,
        "meta_mean_motion_dot": -7e-08,
        "meta_mean_motion_ddot": 0,
        "tle_line1": "1 43633U 18074B   25350.59004882 -.00000007  00000+0  00000+0 0  9996",
        "tle_line2": "2 43633   0.0492 188.1186 0000837 112.8726 165.8874  1.00269891 26513"
      },
      "geometry": {
        "type": "Point",
        "coordinates": [
          -109.66505541157261,
          -0.01162217096690426
        ]
      }
    }
  ]
}